<?xml version="1.0" encoding="UTF-8"?>
<gpx version="1.1" creator="tour-scraper" xmlns="http://www.topografix.com/GPX/1/1">
  <trk><name>Stage 18: from El Puerto de Santa María to Jerez de la Frontera — La Vuelta 26</name><trkseg>
    <trkpt lat="36.596877" lon="-6.232876"><ele>9.9</ele></trkpt>
    <trkpt lat="36.59636" lon="-6.23342"><ele>10.7</ele></trkpt>
    <trkpt lat="36.596246" lon="-6.233556"><ele>10.9</ele></trkpt>
    <trkpt lat="36.596215" lon="-6.233507"><ele>10.9</ele></trkpt>
    <trkpt lat="36.595852" lon="-6.233864"><ele>11.5</ele></trkpt>
    <trkpt lat="36.595758" lon="-6.233948"><ele>11.5</ele></trkpt>
    <trkpt lat="36.595683" lon="-6.234025"><ele>11.6</ele></trkpt>
    <trkpt lat="36.595497" lon="-6.234195"><ele>11.7</ele></trkpt>
    <trkpt lat="36.595284" lon="-6.234411"><ele>11.6</ele></trkpt>
    <trkpt lat="36.595201" lon="-6.234485"><ele>11.5</ele></trkpt>
    <trkpt lat="36.594585" lon="-6.235111"><ele>9.5</ele></trkpt>
    <trkpt lat="36.594268" lon="-6.235433"><ele>8.1</ele></trkpt>
    <trkpt lat="36.593897" lon="-6.235717"><ele>7</ele></trkpt>
    <trkpt lat="36.593897" lon="-6.235717"><ele>7.1</ele></trkpt>
    <trkpt lat="36.59371" lon="-6.235641"><ele>6.6</ele></trkpt>
    <trkpt lat="36.59371" lon="-6.235641"><ele>6.7</ele></trkpt>
    <trkpt lat="36.593558" lon="-6.235676"><ele>6.5</ele></trkpt>
    <trkpt lat="36.59349" lon="-6.235605"><ele>6.2</ele></trkpt>
    <trkpt lat="36.593339" lon="-6.235332"><ele>5.9</ele></trkpt>
    <trkpt lat="36.593235" lon="-6.235033"><ele>5.6</ele></trkpt>
    <trkpt lat="36.593191" lon="-6.234739"><ele>5.3</ele></trkpt>
    <trkpt lat="36.593228" lon="-6.234093"><ele>5.1</ele></trkpt>
    <trkpt lat="36.593242" lon="-6.233943"><ele>5</ele></trkpt>
    <trkpt lat="36.593288" lon="-6.233456"><ele>4.8</ele></trkpt>
    <trkpt lat="36.593346" lon="-6.232775"><ele>4.8</ele></trkpt>
    <trkpt lat="36.593362" lon="-6.232419"><ele>5</ele></trkpt>
    <trkpt lat="36.593374" lon="-6.232139"><ele>5.1</ele></trkpt>
    <trkpt lat="36.593278" lon="-6.231708"><ele>5.4</ele></trkpt>
    <trkpt lat="36.593272" lon="-6.231683"><ele>5.4</ele></trkpt>
    <trkpt lat="36.59321" lon="-6.231565"><ele>5.5</ele></trkpt>
    <trkpt lat="36.593038" lon="-6.231287"><ele>5.7</ele></trkpt>
    <trkpt lat="36.59296" lon="-6.231169"><ele>5.7</ele></trkpt>
    <trkpt lat="36.592516" lon="-6.23048"><ele>5.6</ele></trkpt>
    <trkpt lat="36.592039" lon="-6.229745"><ele>5.1</ele></trkpt>
    <trkpt lat="36.592039" lon="-6.229745"><ele>5</ele></trkpt>
    <trkpt lat="36.592077" lon="-6.229793"><ele>5</ele></trkpt>
    <trkpt lat="36.592065" lon="-6.229761"><ele>5</ele></trkpt>
    <trkpt lat="36.592068" lon="-6.229712"><ele>5</ele></trkpt>
    <trkpt lat="36.59246" lon="-6.22931"><ele>4.9</ele></trkpt>
    <trkpt lat="36.59313" lon="-6.22869"><ele>5.5</ele></trkpt>
    <trkpt lat="36.59356" lon="-6.228255"><ele>6.1</ele></trkpt>
    <trkpt lat="36.59399" lon="-6.22782"><ele>6.6</ele></trkpt>
    <trkpt lat="36.59458" lon="-6.22728"><ele>7</ele></trkpt>
    <trkpt lat="36.594584" lon="-6.227275"><ele>7</ele></trkpt>
    <trkpt lat="36.594604" lon="-6.227255"><ele>7</ele></trkpt>
    <trkpt lat="36.594826" lon="-6.227031"><ele>7.1</ele></trkpt>
    <trkpt lat="36.595093" lon="-6.226762"><ele>7.1</ele></trkpt>
    <trkpt lat="36.595093" lon="-6.226762"><ele>7.1</ele></trkpt>
    <trkpt lat="36.59516" lon="-6.226697"><ele>7.1</ele></trkpt>
    <trkpt lat="36.59574" lon="-6.226114"><ele>6.9</ele></trkpt>
    <trkpt lat="36.59632" lon="-6.225532"><ele>6.9</ele></trkpt>
    <trkpt lat="36.596278" lon="-6.225577"><ele>6.9</ele></trkpt>
    <trkpt lat="36.596485" lon="-6.225372"><ele>7</ele></trkpt>
    <trkpt lat="36.596909" lon="-6.224944"><ele>6.6</ele></trkpt>
    <trkpt lat="36.597068" lon="-6.224802"><ele>6.3</ele></trkpt>
    <trkpt lat="36.597148" lon="-6.224734"><ele>6.2</ele></trkpt>
    <trkpt lat="36.597564" lon="-6.224349"><ele>5.8</ele></trkpt>
    <trkpt lat="36.597613" lon="-6.224343"><ele>5.8</ele></trkpt>
    <trkpt lat="36.597728" lon="-6.224366"><ele>5.6</ele></trkpt>
    <trkpt lat="36.597794" lon="-6.224362"><ele>5.6</ele></trkpt>
    <trkpt lat="36.597889" lon="-6.224299"><ele>5.4</ele></trkpt>
    <trkpt lat="36.598625" lon="-6.223706"><ele>4</ele></trkpt>
    <trkpt lat="36.598919" lon="-6.223445"><ele>3.6</ele></trkpt>
    <trkpt lat="36.599294" lon="-6.222996"><ele>3</ele></trkpt>
    <trkpt lat="36.599538" lon="-6.222708"><ele>2.8</ele></trkpt>
    <trkpt lat="36.599748" lon="-6.222441"><ele>2.8</ele></trkpt>
    <trkpt lat="36.599939" lon="-6.222261"><ele>2.8</ele></trkpt>
    <trkpt lat="36.60015" lon="-6.222206"><ele>2.7</ele></trkpt>
    <trkpt lat="36.600303" lon="-6.22219"><ele>2.7</ele></trkpt>
    <trkpt lat="36.600439" lon="-6.222128"><ele>2.7</ele></trkpt>
    <trkpt lat="36.600632" lon="-6.22194"><ele>2.7</ele></trkpt>
    <trkpt lat="36.600761" lon="-6.221819"><ele>2.8</ele></trkpt>
    <trkpt lat="36.601023" lon="-6.22145"><ele>3.3</ele></trkpt>
    <trkpt lat="36.601435" lon="-6.221012"><ele>3.6</ele></trkpt>
    <trkpt lat="36.601573" lon="-6.220897"><ele>3.7</ele></trkpt>
    <trkpt lat="36.602011" lon="-6.220415"><ele>4</ele></trkpt>
    <trkpt lat="36.602011" lon="-6.220415"><ele>3.9</ele></trkpt>
    <trkpt lat="36.602186" lon="-6.220209"><ele>4.2</ele></trkpt>
    <trkpt lat="36.602186" lon="-6.220209"><ele>4.2</ele></trkpt>
    <trkpt lat="36.602174" lon="-6.219978"><ele>4.3</ele></trkpt>
    <trkpt lat="36.602296" lon="-6.21974"><ele>4.4</ele></trkpt>
    <trkpt lat="36.602384" lon="-6.219584"><ele>4.5</ele></trkpt>
    <trkpt lat="36.602384" lon="-6.219584"><ele>4.5</ele></trkpt>
    <trkpt lat="36.602503" lon="-6.219483"><ele>4.5</ele></trkpt>
    <trkpt lat="36.602947" lon="-6.219262"><ele>4.7</ele></trkpt>
    <trkpt lat="36.603876" lon="-6.218892"><ele>5.4</ele></trkpt>
    <trkpt lat="36.603964" lon="-6.218857"><ele>5.4</ele></trkpt>
    <trkpt lat="36.603967" lon="-6.218805"><ele>5.4</ele></trkpt>
    <trkpt lat="36.604001" lon="-6.218706"><ele>5.5</ele></trkpt>
    <trkpt lat="36.604045" lon="-6.218657"><ele>5.5</ele></trkpt>
    <trkpt lat="36.604158" lon="-6.218627"><ele>5.6</ele></trkpt>
    <trkpt lat="36.60424" lon="-6.218668"><ele>5.6</ele></trkpt>
    <trkpt lat="36.604261" lon="-6.218687"><ele>5.6</ele></trkpt>
    <trkpt lat="36.604282" lon="-6.218718"><ele>5.7</ele></trkpt>
    <trkpt lat="36.604438" lon="-6.218724"><ele>5.7</ele></trkpt>
    <trkpt lat="36.605297" lon="-6.218431"><ele>6.1</ele></trkpt>
    <trkpt lat="36.605532" lon="-6.218373"><ele>6.1</ele></trkpt>
    <trkpt lat="36.606556" lon="-6.218311"><ele>6.5</ele></trkpt>
    <trkpt lat="36.606803" lon="-6.218228"><ele>6.7</ele></trkpt>
    <trkpt lat="36.606861" lon="-6.218172"><ele>6.8</ele></trkpt>
    <trkpt lat="36.606956" lon="-6.218093"><ele>6.9</ele></trkpt>
    <trkpt lat="36.607048" lon="-6.218061"><ele>6.9</ele></trkpt>
    <trkpt lat="36.607146" lon="-6.218103"><ele>7</ele></trkpt>
    <trkpt lat="36.60716" lon="-6.218122"><ele>7</ele></trkpt>
    <trkpt lat="36.607352" lon="-6.218142"><ele>7.1</ele></trkpt>
    <trkpt lat="36.607445" lon="-6.218118"><ele>7.2</ele></trkpt>
    <trkpt lat="36.607604" lon="-6.218008"><ele>7.3</ele></trkpt>
    <trkpt lat="36.608327" lon="-6.217369"><ele>7.6</ele></trkpt>
    <trkpt lat="36.608435" lon="-6.217211"><ele>7.6</ele></trkpt>
    <trkpt lat="36.608461" lon="-6.217095"><ele>7.6</ele></trkpt>
    <trkpt lat="36.608495" lon="-6.217051"><ele>7.6</ele></trkpt>
    <trkpt lat="36.608588" lon="-6.217015"><ele>7.6</ele></trkpt>
    <trkpt lat="36.608636" lon="-6.217026"><ele>7.5</ele></trkpt>
    <trkpt lat="36.608792" lon="-6.21695"><ele>7.5</ele></trkpt>
    <trkpt lat="36.60986" lon="-6.215987"><ele>7.2</ele></trkpt>
    <trkpt lat="36.609964" lon="-6.215897"><ele>7.2</ele></trkpt>
    <trkpt lat="36.610731" lon="-6.21519"><ele>7</ele></trkpt>
    <trkpt lat="36.612743" lon="-6.213431"><ele>6.2</ele></trkpt>
    <trkpt lat="36.612973" lon="-6.21323"><ele>6.2</ele></trkpt>
    <trkpt lat="36.613009" lon="-6.213173"><ele>6.2</ele></trkpt>
    <trkpt lat="36.613144" lon="-6.21295"><ele>6.2</ele></trkpt>
    <trkpt lat="36.613164" lon="-6.212825"><ele>6.3</ele></trkpt>
    <trkpt lat="36.613253" lon="-6.212695"><ele>6.3</ele></trkpt>
    <trkpt lat="36.613384" lon="-6.212645"><ele>6.3</ele></trkpt>
    <trkpt lat="36.613488" lon="-6.212673"><ele>6.4</ele></trkpt>
    <trkpt lat="36.613706" lon="-6.212602"><ele>6.4</ele></trkpt>
    <trkpt lat="36.613873" lon="-6.212469"><ele>6.4</ele></trkpt>
    <trkpt lat="36.614126" lon="-6.212243"><ele>6.5</ele></trkpt>
    <trkpt lat="36.61427" lon="-6.212082"><ele>6.6</ele></trkpt>
    <trkpt lat="36.614343" lon="-6.211934"><ele>6.7</ele></trkpt>
    <trkpt lat="36.614357" lon="-6.211835"><ele>6.7</ele></trkpt>
    <trkpt lat="36.614375" lon="-6.21179"><ele>6.7</ele></trkpt>
    <trkpt lat="36.614466" lon="-6.211686"><ele>6.8</ele></trkpt>
    <trkpt lat="36.614526" lon="-6.211662"><ele>6.8</ele></trkpt>
    <trkpt lat="36.614532" lon="-6.211661"><ele>6.8</ele></trkpt>
    <trkpt lat="36.614569" lon="-6.211658"><ele>6.8</ele></trkpt>
    <trkpt lat="36.61464" lon="-6.211676"><ele>6.8</ele></trkpt>
    <trkpt lat="36.614967" lon="-6.21151"><ele>6.8</ele></trkpt>
    <trkpt lat="36.617106" lon="-6.209656"><ele>6.5</ele></trkpt>
    <trkpt lat="36.618714" lon="-6.208263"><ele>5.8</ele></trkpt>
    <trkpt lat="36.618943" lon="-6.20806"><ele>5.8</ele></trkpt>
    <trkpt lat="36.619637" lon="-6.207447"><ele>6.4</ele></trkpt>
    <trkpt lat="36.61989" lon="-6.207231"><ele>6.7</ele></trkpt>
    <trkpt lat="36.620022" lon="-6.207064"><ele>7</ele></trkpt>
    <trkpt lat="36.620145" lon="-6.206745"><ele>7.5</ele></trkpt>
    <trkpt lat="36.620154" lon="-6.206692"><ele>7.5</ele></trkpt>
    <trkpt lat="36.620227" lon="-6.206535"><ele>7.8</ele></trkpt>
    <trkpt lat="36.620283" lon="-6.206477"><ele>8</ele></trkpt>
    <trkpt lat="36.620419" lon="-6.206416"><ele>8.3</ele></trkpt>
    <trkpt lat="36.620493" lon="-6.206418"><ele>8.5</ele></trkpt>
    <trkpt lat="36.620701" lon="-6.2064"><ele>8.9</ele></trkpt>
    <trkpt lat="36.620924" lon="-6.206314"><ele>9.3</ele></trkpt>
    <trkpt lat="36.621282" lon="-6.206035"><ele>10.2</ele></trkpt>
    <trkpt lat="36.624249" lon="-6.203426"><ele>15.6</ele></trkpt>
    <trkpt lat="36.624341" lon="-6.203307"><ele>15.9</ele></trkpt>
    <trkpt lat="36.624456" lon="-6.20298"><ele>16.5</ele></trkpt>
    <trkpt lat="36.62448" lon="-6.202874"><ele>16.7</ele></trkpt>
    <trkpt lat="36.624537" lon="-6.202768"><ele>16.9</ele></trkpt>
    <trkpt lat="36.624673" lon="-6.202661"><ele>17.3</ele></trkpt>
    <trkpt lat="36.624758" lon="-6.202643"><ele>17.5</ele></trkpt>
    <trkpt lat="36.624844" lon="-6.202655"><ele>17.7</ele></trkpt>
    <trkpt lat="36.624969" lon="-6.202681"><ele>18.1</ele></trkpt>
    <trkpt lat="36.625197" lon="-6.2026"><ele>18.7</ele></trkpt>
    <trkpt lat="36.625355" lon="-6.202486"><ele>19.2</ele></trkpt>
    <trkpt lat="36.628439" lon="-6.199798"><ele>29.8</ele></trkpt>
    <trkpt lat="36.628898" lon="-6.199368"><ele>31.4</ele></trkpt>
    <trkpt lat="36.629026" lon="-6.1992"><ele>31.8</ele></trkpt>
    <trkpt lat="36.629265" lon="-6.198694"><ele>32.6</ele></trkpt>
    <trkpt lat="36.629329" lon="-6.198421"><ele>33</ele></trkpt>
    <trkpt lat="36.629338" lon="-6.198282"><ele>33.1</ele></trkpt>
    <trkpt lat="36.629432" lon="-6.197944"><ele>33.4</ele></trkpt>
    <trkpt lat="36.629513" lon="-6.197423"><ele>33.8</ele></trkpt>
    <trkpt lat="36.629545" lon="-6.191902"><ele>35.6</ele></trkpt>
    <trkpt lat="36.62956" lon="-6.189732"><ele>35.6</ele></trkpt>
    <trkpt lat="36.629543" lon="-6.188405"><ele>34.9</ele></trkpt>
    <trkpt lat="36.629443" lon="-6.186948"><ele>34.3</ele></trkpt>
    <trkpt lat="36.629257" lon="-6.184883"><ele>34.4</ele></trkpt>
    <trkpt lat="36.629197" lon="-6.183892"><ele>35.2</ele></trkpt>
    <trkpt lat="36.629146" lon="-6.183104"><ele>35.9</ele></trkpt>
    <trkpt lat="36.629118" lon="-6.181971"><ele>37</ele></trkpt>
    <trkpt lat="36.629132" lon="-6.181328"><ele>37.4</ele></trkpt>
    <trkpt lat="36.629145" lon="-6.181123"><ele>37.5</ele></trkpt>
    <trkpt lat="36.629291" lon="-6.17888"><ele>37.9</ele></trkpt>
    <trkpt lat="36.629498" lon="-6.175681"><ele>38.9</ele></trkpt>
    <trkpt lat="36.629621" lon="-6.174015"><ele>37.7</ele></trkpt>
    <trkpt lat="36.629593" lon="-6.173371"><ele>37.1</ele></trkpt>
    <trkpt lat="36.629346" lon="-6.170788"><ele>34.4</ele></trkpt>
    <trkpt lat="36.62907" lon="-6.167585"><ele>31</ele></trkpt>
    <trkpt lat="36.628987" lon="-6.166144"><ele>29.5</ele></trkpt>
    <trkpt lat="36.628614" lon="-6.161801"><ele>23.3</ele></trkpt>
    <trkpt lat="36.628344" lon="-6.158664"><ele>22.7</ele></trkpt>
    <trkpt lat="36.628178" lon="-6.156723"><ele>22.5</ele></trkpt>
    <trkpt lat="36.628099" lon="-6.155802"><ele>24.2</ele></trkpt>
    <trkpt lat="36.627968" lon="-6.155063"><ele>26.1</ele></trkpt>
    <trkpt lat="36.627747" lon="-6.154377"><ele>27.4</ele></trkpt>
    <trkpt lat="36.627445" lon="-6.15381"><ele>27.9</ele></trkpt>
    <trkpt lat="36.627359" lon="-6.153649"><ele>27.9</ele></trkpt>
    <trkpt lat="36.626976" lon="-6.152849"><ele>27.4</ele></trkpt>
    <trkpt lat="36.626838" lon="-6.152248"><ele>26.8</ele></trkpt>
    <trkpt lat="36.62668" lon="-6.151381"><ele>26.1</ele></trkpt>
    <trkpt lat="36.626418" lon="-6.150609"><ele>25.4</ele></trkpt>
    <trkpt lat="36.626019" lon="-6.149922"><ele>24.6</ele></trkpt>
    <trkpt lat="36.625736" lon="-6.149244"><ele>23.3</ele></trkpt>
    <trkpt lat="36.625598" lon="-6.148789"><ele>22</ele></trkpt>
    <trkpt lat="36.625529" lon="-6.148266"><ele>20.4</ele></trkpt>
    <trkpt lat="36.625509" lon="-6.147751"><ele>18.5</ele></trkpt>
    <trkpt lat="36.625598" lon="-6.147184"><ele>16.2</ele></trkpt>
    <trkpt lat="36.625798" lon="-6.146523"><ele>13.2</ele></trkpt>
    <trkpt lat="36.62606" lon="-6.145931"><ele>10.6</ele></trkpt>
    <trkpt lat="36.626191" lon="-6.145687"><ele>9.6</ele></trkpt>
    <trkpt lat="36.626614" lon="-6.144777"><ele>7</ele></trkpt>
    <trkpt lat="36.62868" lon="-6.142067"><ele>7</ele></trkpt>
    <trkpt lat="36.629896" lon="-6.140218"><ele>11.1</ele></trkpt>
    <trkpt lat="36.630563" lon="-6.13919"><ele>11.4</ele></trkpt>
    <trkpt lat="36.631329" lon="-6.137914"><ele>7.9</ele></trkpt>
    <trkpt lat="36.631667" lon="-6.137528"><ele>6.6</ele></trkpt>
    <trkpt lat="36.63345" lon="-6.135941"><ele>4.6</ele></trkpt>
    <trkpt lat="36.634502" lon="-6.135023"><ele>4.1</ele></trkpt>
    <trkpt lat="36.635061" lon="-6.134599"><ele>3.9</ele></trkpt>
    <trkpt lat="36.636153" lon="-6.133768"><ele>4.2</ele></trkpt>
    <trkpt lat="36.63703" lon="-6.133107"><ele>4.6</ele></trkpt>
    <trkpt lat="36.636788" lon="-6.132887"><ele>4.7</ele></trkpt>
    <trkpt lat="36.636709" lon="-6.132816"><ele>4.7</ele></trkpt>
    <trkpt lat="36.636063" lon="-6.13223"><ele>4.4</ele></trkpt>
    <trkpt lat="36.635448" lon="-6.131694"><ele>3.9</ele></trkpt>
    <trkpt lat="36.634584" lon="-6.130931"><ele>3.3</ele></trkpt>
    <trkpt lat="36.632804" lon="-6.129271"><ele>2.4</ele></trkpt>
    <trkpt lat="36.632302" lon="-6.128815"><ele>2.5</ele></trkpt>
    <trkpt lat="36.631644" lon="-6.128259"><ele>2.8</ele></trkpt>
    <trkpt lat="36.631581" lon="-6.128202"><ele>2.9</ele></trkpt>
    <trkpt lat="36.631538" lon="-6.128164"><ele>2.9</ele></trkpt>
    <trkpt lat="36.630994" lon="-6.127675"><ele>3.5</ele></trkpt>
    <trkpt lat="36.627755" lon="-6.124762"><ele>2.6</ele></trkpt>
    <trkpt lat="36.622271" lon="-6.120079"><ele>5.5</ele></trkpt>
    <trkpt lat="36.623312" lon="-6.119129"><ele>6.1</ele></trkpt>
    <trkpt lat="36.624652" lon="-6.11727"><ele>6.5</ele></trkpt>
    <trkpt lat="36.628273" lon="-6.113427"><ele>3.1</ele></trkpt>
    <trkpt lat="36.628797" lon="-6.112871"><ele>2.7</ele></trkpt>
    <trkpt lat="36.631352" lon="-6.108164"><ele>3.1</ele></trkpt>
    <trkpt lat="36.631585" lon="-6.10759"><ele>3.2</ele></trkpt>
    <trkpt lat="36.631623" lon="-6.107505"><ele>3.2</ele></trkpt>
    <trkpt lat="36.631694" lon="-6.107349"><ele>3.2</ele></trkpt>
    <trkpt lat="36.632161" lon="-6.10668"><ele>3.4</ele></trkpt>
    <trkpt lat="36.635601" lon="-6.101749"><ele>4.4</ele></trkpt>
    <trkpt lat="36.63653" lon="-6.100553"><ele>4.5</ele></trkpt>
    <trkpt lat="36.637992" lon="-6.099219"><ele>4.7</ele></trkpt>
    <trkpt lat="36.638832" lon="-6.098052"><ele>4.9</ele></trkpt>
    <trkpt lat="36.639417" lon="-6.097091"><ele>5.4</ele></trkpt>
    <trkpt lat="36.640134" lon="-6.095777"><ele>6.2</ele></trkpt>
    <trkpt lat="36.640636" lon="-6.094481"><ele>6.9</ele></trkpt>
    <trkpt lat="36.641091" lon="-6.09334"><ele>6.9</ele></trkpt>
    <trkpt lat="36.641339" lon="-6.092954"><ele>6.7</ele></trkpt>
    <trkpt lat="36.641984" lon="-6.09231"><ele>5.9</ele></trkpt>
    <trkpt lat="36.642093" lon="-6.092199"><ele>5.8</ele></trkpt>
    <trkpt lat="36.64399" lon="-6.090276"><ele>5.4</ele></trkpt>
    <trkpt lat="36.645971" lon="-6.087837"><ele>6.6</ele></trkpt>
    <trkpt lat="36.646182" lon="-6.087631"><ele>6.7</ele></trkpt>
    <trkpt lat="36.646387" lon="-6.087535"><ele>6.7</ele></trkpt>
    <trkpt lat="36.648184" lon="-6.087016"><ele>7</ele></trkpt>
    <trkpt lat="36.648354" lon="-6.086933"><ele>7</ele></trkpt>
    <trkpt lat="36.648457" lon="-6.086825"><ele>6.9</ele></trkpt>
    <trkpt lat="36.648477" lon="-6.086692"><ele>6.9</ele></trkpt>
    <trkpt lat="36.648447" lon="-6.086469"><ele>6.8</ele></trkpt>
    <trkpt lat="36.648375" lon="-6.086201"><ele>6.7</ele></trkpt>
    <trkpt lat="36.648253" lon="-6.085907"><ele>6.6</ele></trkpt>
    <trkpt lat="36.648026" lon="-6.085524"><ele>6.4</ele></trkpt>
    <trkpt lat="36.648002" lon="-6.085427"><ele>6.4</ele></trkpt>
    <trkpt lat="36.648014" lon="-6.085328"><ele>6.3</ele></trkpt>
    <trkpt lat="36.648038" lon="-6.085258"><ele>6.3</ele></trkpt>
    <trkpt lat="36.648688" lon="-6.084424"><ele>6.4</ele></trkpt>
    <trkpt lat="36.648854" lon="-6.084123"><ele>6.6</ele></trkpt>
    <trkpt lat="36.648982" lon="-6.083762"><ele>6.8</ele></trkpt>
    <trkpt lat="36.648972" lon="-6.083645"><ele>6.8</ele></trkpt>
    <trkpt lat="36.648923" lon="-6.083572"><ele>6.8</ele></trkpt>
    <trkpt lat="36.648888" lon="-6.083556"><ele>6.9</ele></trkpt>
    <trkpt lat="36.648802" lon="-6.083447"><ele>6.9</ele></trkpt>
    <trkpt lat="36.648785" lon="-6.083366"><ele>6.9</ele></trkpt>
    <trkpt lat="36.648806" lon="-6.083238"><ele>6.9</ele></trkpt>
    <trkpt lat="36.64888" lon="-6.083145"><ele>7</ele></trkpt>
    <trkpt lat="36.649012" lon="-6.083122"><ele>7</ele></trkpt>
    <trkpt lat="36.649114" lon="-6.083202"><ele>6.9</ele></trkpt>
    <trkpt lat="36.649145" lon="-6.083268"><ele>6.9</ele></trkpt>
    <trkpt lat="36.649156" lon="-6.083334"><ele>6.9</ele></trkpt>
    <trkpt lat="36.649206" lon="-6.083463"><ele>6.8</ele></trkpt>
    <trkpt lat="36.649347" lon="-6.083592"><ele>6.7</ele></trkpt>
    <trkpt lat="36.649584" lon="-6.083637"><ele>6.6</ele></trkpt>
    <trkpt lat="36.650427" lon="-6.083806"><ele>6.5</ele></trkpt>
    <trkpt lat="36.651213" lon="-6.083968"><ele>6.9</ele></trkpt>
    <trkpt lat="36.651358" lon="-6.083932"><ele>7.1</ele></trkpt>
    <trkpt lat="36.651545" lon="-6.083788"><ele>7.5</ele></trkpt>
    <trkpt lat="36.651645" lon="-6.083734"><ele>7.7</ele></trkpt>
    <trkpt lat="36.652821" lon="-6.08356"><ele>9.4</ele></trkpt>
    <trkpt lat="36.653061" lon="-6.083451"><ele>9.7</ele></trkpt>
    <trkpt lat="36.653196" lon="-6.083374"><ele>9.8</ele></trkpt>
    <trkpt lat="36.653754" lon="-6.082934"><ele>10.6</ele></trkpt>
    <trkpt lat="36.653939" lon="-6.082687"><ele>10.9</ele></trkpt>
    <trkpt lat="36.653967" lon="-6.082634"><ele>11</ele></trkpt>
    <trkpt lat="36.654028" lon="-6.082511"><ele>11.2</ele></trkpt>
    <trkpt lat="36.654165" lon="-6.082222"><ele>11.6</ele></trkpt>
    <trkpt lat="36.654245" lon="-6.082055"><ele>11.8</ele></trkpt>
    <trkpt lat="36.655029" lon="-6.080385"><ele>14.5</ele></trkpt>
    <trkpt lat="36.65539" lon="-6.079643"><ele>16.4</ele></trkpt>
    <trkpt lat="36.656807" lon="-6.076638"><ele>30.6</ele></trkpt>
    <trkpt lat="36.657264" lon="-6.075669"><ele>36.6</ele></trkpt>
    <trkpt lat="36.657534" lon="-6.075168"><ele>39.9</ele></trkpt>
    <trkpt lat="36.657818" lon="-6.074756"><ele>42.7</ele></trkpt>
    <trkpt lat="36.658465" lon="-6.074456"><ele>46.5</ele></trkpt>
    <trkpt lat="36.6588" lon="-6.073987"><ele>48.3</ele></trkpt>
    <trkpt lat="36.659217" lon="-6.07349"><ele>48.6</ele></trkpt>
    <trkpt lat="36.663491" lon="-6.072222"><ele>26.9</ele></trkpt>
    <trkpt lat="36.663979" lon="-6.072077"><ele>26.2</ele></trkpt>
    <trkpt lat="36.664048" lon="-6.072057"><ele>26.2</ele></trkpt>
    <trkpt lat="36.669832" lon="-6.070346"><ele>49.8</ele></trkpt>
    <trkpt lat="36.67248" lon="-6.069563"><ele>59.8</ele></trkpt>
    <trkpt lat="36.674123" lon="-6.068944"><ele>57.8</ele></trkpt>
    <trkpt lat="36.675059" lon="-6.068354"><ele>54</ele></trkpt>
    <trkpt lat="36.676546" lon="-6.067417"><ele>46.1</ele></trkpt>
    <trkpt lat="36.676781" lon="-6.067405"><ele>45.3</ele></trkpt>
    <trkpt lat="36.677119" lon="-6.067482"><ele>44.3</ele></trkpt>
    <trkpt lat="36.677866" lon="-6.06765"><ele>42.7</ele></trkpt>
    <trkpt lat="36.678296" lon="-6.067748"><ele>41.8</ele></trkpt>
    <trkpt lat="36.678469" lon="-6.06788"><ele>41.3</ele></trkpt>
    <trkpt lat="36.679946" lon="-6.069521"><ele>32.6</ele></trkpt>
    <trkpt lat="36.681652" lon="-6.071436"><ele>28.4</ele></trkpt>
    <trkpt lat="36.681888" lon="-6.071707"><ele>28</ele></trkpt>
    <trkpt lat="36.682218" lon="-6.072065"><ele>27.7</ele></trkpt>
    <trkpt lat="36.682536" lon="-6.07243"><ele>27.6</ele></trkpt>
    <trkpt lat="36.682668" lon="-6.072574"><ele>27.6</ele></trkpt>
    <trkpt lat="36.68306" lon="-6.073056"><ele>27.6</ele></trkpt>
    <trkpt lat="36.68349" lon="-6.073812"><ele>27.3</ele></trkpt>
    <trkpt lat="36.683532" lon="-6.073916"><ele>27.2</ele></trkpt>
    <trkpt lat="36.683602" lon="-6.074083"><ele>27.1</ele></trkpt>
    <trkpt lat="36.683704" lon="-6.074353"><ele>26.7</ele></trkpt>
    <trkpt lat="36.683732" lon="-6.074428"><ele>26.6</ele></trkpt>
    <trkpt lat="36.684075" lon="-6.075448"><ele>24.8</ele></trkpt>
    <trkpt lat="36.68409" lon="-6.075493"><ele>24.7</ele></trkpt>
    <trkpt lat="36.684337" lon="-6.076241"><ele>22.5</ele></trkpt>
    <trkpt lat="36.684385" lon="-6.076392"><ele>22.1</ele></trkpt>
    <trkpt lat="36.684456" lon="-6.076616"><ele>21.4</ele></trkpt>
    <trkpt lat="36.684602" lon="-6.077086"><ele>19.8</ele></trkpt>
    <trkpt lat="36.684694" lon="-6.077423"><ele>18.8</ele></trkpt>
    <trkpt lat="36.684899" lon="-6.07816"><ele>16.3</ele></trkpt>
    <trkpt lat="36.685079" lon="-6.078802"><ele>14.6</ele></trkpt>
    <trkpt lat="36.685233" lon="-6.079307"><ele>13.5</ele></trkpt>
    <trkpt lat="36.685359" lon="-6.079484"><ele>13.2</ele></trkpt>
    <trkpt lat="36.685526" lon="-6.0796"><ele>12.8</ele></trkpt>
    <trkpt lat="36.685765" lon="-6.079665"><ele>12.3</ele></trkpt>
    <trkpt lat="36.686069" lon="-6.079711"><ele>11.8</ele></trkpt>
    <trkpt lat="36.686102" lon="-6.079715"><ele>11.8</ele></trkpt>
    <trkpt lat="36.686269" lon="-6.079758"><ele>11.6</ele></trkpt>
    <trkpt lat="36.686207" lon="-6.080086"><ele>11.5</ele></trkpt>
    <trkpt lat="36.686166" lon="-6.080424"><ele>11.4</ele></trkpt>
    <trkpt lat="36.686158" lon="-6.080494"><ele>11.4</ele></trkpt>
    <trkpt lat="36.686122" lon="-6.080797"><ele>11.4</ele></trkpt>
    <trkpt lat="36.686031" lon="-6.081564"><ele>11.5</ele></trkpt>
    <trkpt lat="36.685938" lon="-6.082387"><ele>12</ele></trkpt>
    <trkpt lat="36.685911" lon="-6.082668"><ele>12.1</ele></trkpt>
    <trkpt lat="36.685884" lon="-6.082953"><ele>12.2</ele></trkpt>
    <trkpt lat="36.685948" lon="-6.083207"><ele>12.3</ele></trkpt>
    <trkpt lat="36.685988" lon="-6.083219"><ele>12.3</ele></trkpt>
    <trkpt lat="36.686211" lon="-6.083101"><ele>12.3</ele></trkpt>
    <trkpt lat="36.686708" lon="-6.08269"><ele>12.2</ele></trkpt>
    <trkpt lat="36.687135" lon="-6.082218"><ele>12.1</ele></trkpt>
    <trkpt lat="36.687431" lon="-6.081781"><ele>12.1</ele></trkpt>
    <trkpt lat="36.687823" lon="-6.081463"><ele>12.3</ele></trkpt>
    <trkpt lat="36.688208" lon="-6.081386"><ele>12.9</ele></trkpt>
    <trkpt lat="36.688345" lon="-6.081406"><ele>13.1</ele></trkpt>
    <trkpt lat="36.688953" lon="-6.081498"><ele>14.1</ele></trkpt>
    <trkpt lat="36.689627" lon="-6.0816"><ele>14.9</ele></trkpt>
    <trkpt lat="36.690308" lon="-6.081703"><ele>15</ele></trkpt>
    <trkpt lat="36.691512" lon="-6.081995"><ele>13.9</ele></trkpt>
    <trkpt lat="36.691829" lon="-6.082167"><ele>13.7</ele></trkpt>
    <trkpt lat="36.692594" lon="-6.082759"><ele>13.5</ele></trkpt>
    <trkpt lat="36.692716" lon="-6.082853"><ele>13.5</ele></trkpt>
    <trkpt lat="36.693021" lon="-6.08299"><ele>13.6</ele></trkpt>
    <trkpt lat="36.695039" lon="-6.083898"><ele>14.5</ele></trkpt>
    <trkpt lat="36.697543" lon="-6.085022"><ele>14.5</ele></trkpt>
    <trkpt lat="36.698579" lon="-6.08549"><ele>14.5</ele></trkpt>
    <trkpt lat="36.699695" lon="-6.085994"><ele>14.7</ele></trkpt>
    <trkpt lat="36.699948" lon="-6.085992"><ele>14.7</ele></trkpt>
    <trkpt lat="36.700034" lon="-6.085947"><ele>14.8</ele></trkpt>
    <trkpt lat="36.700146" lon="-6.085976"><ele>14.8</ele></trkpt>
    <trkpt lat="36.70022" lon="-6.086085"><ele>14.8</ele></trkpt>
    <trkpt lat="36.700229" lon="-6.08613"><ele>14.8</ele></trkpt>
    <trkpt lat="36.700401" lon="-6.086329"><ele>14.9</ele></trkpt>
    <trkpt lat="36.70167" lon="-6.086865"><ele>15.5</ele></trkpt>
    <trkpt lat="36.701938" lon="-6.086984"><ele>15.6</ele></trkpt>
    <trkpt lat="36.701971" lon="-6.086921"><ele>15.6</ele></trkpt>
    <trkpt lat="36.702057" lon="-6.086905"><ele>15.7</ele></trkpt>
    <trkpt lat="36.702103" lon="-6.086952"><ele>15.7</ele></trkpt>
    <trkpt lat="36.702107" lon="-6.087061"><ele>15.7</ele></trkpt>
    <trkpt lat="36.702066" lon="-6.087113"><ele>15.7</ele></trkpt>
    <trkpt lat="36.702007" lon="-6.087121"><ele>15.8</ele></trkpt>
    <trkpt lat="36.70144" lon="-6.090125"><ele>17.3</ele></trkpt>
    <trkpt lat="36.701063" lon="-6.092116"><ele>18.5</ele></trkpt>
    <trkpt lat="36.701132" lon="-6.092198"><ele>18.6</ele></trkpt>
    <trkpt lat="36.70113" lon="-6.09228"><ele>18.6</ele></trkpt>
    <trkpt lat="36.701085" lon="-6.092342"><ele>18.7</ele></trkpt>
    <trkpt lat="36.701019" lon="-6.092355"><ele>18.7</ele></trkpt>
    <trkpt lat="36.700283" lon="-6.096209"><ele>22.8</ele></trkpt>
    <trkpt lat="36.700343" lon="-6.096488"><ele>23.1</ele></trkpt>
    <trkpt lat="36.700394" lon="-6.096573"><ele>23.2</ele></trkpt>
    <trkpt lat="36.700401" lon="-6.09672"><ele>23.3</ele></trkpt>
    <trkpt lat="36.700374" lon="-6.096883"><ele>23.4</ele></trkpt>
    <trkpt lat="36.700312" lon="-6.097245"><ele>23.7</ele></trkpt>
    <trkpt lat="36.700264" lon="-6.097336"><ele>23.7</ele></trkpt>
    <trkpt lat="36.700227" lon="-6.097508"><ele>23.9</ele></trkpt>
    <trkpt lat="36.700211" lon="-6.097606"><ele>23.9</ele></trkpt>
    <trkpt lat="36.700179" lon="-6.09779"><ele>24</ele></trkpt>
    <trkpt lat="36.70005" lon="-6.098524"><ele>24.5</ele></trkpt>
    <trkpt lat="36.699509" lon="-6.101663"><ele>26.7</ele></trkpt>
    <trkpt lat="36.699516" lon="-6.101768"><ele>26.7</ele></trkpt>
    <trkpt lat="36.69951" lon="-6.101818"><ele>26.8</ele></trkpt>
    <trkpt lat="36.699455" lon="-6.101899"><ele>26.9</ele></trkpt>
    <trkpt lat="36.699398" lon="-6.102105"><ele>27</ele></trkpt>
    <trkpt lat="36.699312" lon="-6.102583"><ele>27.4</ele></trkpt>
    <trkpt lat="36.6992" lon="-6.103203"><ele>27.9</ele></trkpt>
    <trkpt lat="36.699037" lon="-6.104103"><ele>28.6</ele></trkpt>
    <trkpt lat="36.698927" lon="-6.104712"><ele>29.2</ele></trkpt>
    <trkpt lat="36.69885" lon="-6.105147"><ele>29.5</ele></trkpt>
    <trkpt lat="36.698714" lon="-6.105925"><ele>30.3</ele></trkpt>
    <trkpt lat="36.698613" lon="-6.106478"><ele>30.9</ele></trkpt>
    <trkpt lat="36.698601" lon="-6.106661"><ele>31</ele></trkpt>
    <trkpt lat="36.698639" lon="-6.106833"><ele>31.2</ele></trkpt>
    <trkpt lat="36.69868" lon="-6.106922"><ele>31.3</ele></trkpt>
    <trkpt lat="36.698757" lon="-6.107038"><ele>31.4</ele></trkpt>
    <trkpt lat="36.698928" lon="-6.107159"><ele>31.6</ele></trkpt>
    <trkpt lat="36.69896" lon="-6.10717"><ele>31.6</ele></trkpt>
    <trkpt lat="36.698993" lon="-6.107182"><ele>31.6</ele></trkpt>
    <trkpt lat="36.699198" lon="-6.107299"><ele>31.8</ele></trkpt>
    <trkpt lat="36.699378" lon="-6.107453"><ele>32</ele></trkpt>
    <trkpt lat="36.700387" lon="-6.108729"><ele>32.8</ele></trkpt>
    <trkpt lat="36.700992" lon="-6.109487"><ele>33.1</ele></trkpt>
    <trkpt lat="36.701074" lon="-6.109589"><ele>33.2</ele></trkpt>
    <trkpt lat="36.701563" lon="-6.110225"><ele>33.4</ele></trkpt>
    <trkpt lat="36.701888" lon="-6.110645"><ele>33.4</ele></trkpt>
    <trkpt lat="36.702057" lon="-6.110793"><ele>33.4</ele></trkpt>
    <trkpt lat="36.70216" lon="-6.110798"><ele>33.4</ele></trkpt>
    <trkpt lat="36.702238" lon="-6.110869"><ele>33.5</ele></trkpt>
    <trkpt lat="36.702272" lon="-6.11098"><ele>33.5</ele></trkpt>
    <trkpt lat="36.702264" lon="-6.111065"><ele>33.6</ele></trkpt>
    <trkpt lat="36.702361" lon="-6.111219"><ele>33.7</ele></trkpt>
    <trkpt lat="36.702902" lon="-6.111776"><ele>34.5</ele></trkpt>
    <trkpt lat="36.703362" lon="-6.112436"><ele>35.9</ele></trkpt>
    <trkpt lat="36.703706" lon="-6.112954"><ele>37.3</ele></trkpt>
    <trkpt lat="36.703952" lon="-6.113275"><ele>38.1</ele></trkpt>
    <trkpt lat="36.70397" lon="-6.113294"><ele>38.1</ele></trkpt>
    <trkpt lat="36.704053" lon="-6.11335"><ele>38.3</ele></trkpt>
    <trkpt lat="36.70414" lon="-6.113335"><ele>38.5</ele></trkpt>
    <trkpt lat="36.704196" lon="-6.113356"><ele>38.7</ele></trkpt>
    <trkpt lat="36.704245" lon="-6.113398"><ele>38.8</ele></trkpt>
    <trkpt lat="36.704298" lon="-6.113527"><ele>39</ele></trkpt>
    <trkpt lat="36.704336" lon="-6.113655"><ele>39.3</ele></trkpt>
    <trkpt lat="36.704438" lon="-6.113769"><ele>39.5</ele></trkpt>
    <trkpt lat="36.704517" lon="-6.113837"><ele>39.7</ele></trkpt>
    <trkpt lat="36.704569" lon="-6.113891"><ele>39.9</ele></trkpt>
    <trkpt lat="36.705137" lon="-6.114605"><ele>41.1</ele></trkpt>
    <trkpt lat="36.705206" lon="-6.114689"><ele>41.3</ele></trkpt>
    <trkpt lat="36.70525" lon="-6.114746"><ele>41.4</ele></trkpt>
    <trkpt lat="36.705527" lon="-6.115095"><ele>41.9</ele></trkpt>
    <trkpt lat="36.70565" lon="-6.115254"><ele>42.1</ele></trkpt>
    <trkpt lat="36.705961" lon="-6.115703"><ele>42.5</ele></trkpt>
    <trkpt lat="36.706246" lon="-6.116243"><ele>42.7</ele></trkpt>
    <trkpt lat="36.7063" lon="-6.116251"><ele>42.8</ele></trkpt>
    <trkpt lat="36.706371" lon="-6.116295"><ele>42.8</ele></trkpt>
    <trkpt lat="36.706461" lon="-6.116454"><ele>43</ele></trkpt>
    <trkpt lat="36.706454" lon="-6.116647"><ele>43.1</ele></trkpt>
    <trkpt lat="36.706414" lon="-6.116733"><ele>43.2</ele></trkpt>
    <trkpt lat="36.706279" lon="-6.116833"><ele>43.4</ele></trkpt>
    <trkpt lat="36.706272" lon="-6.116832"><ele>43.4</ele></trkpt>
    <trkpt lat="36.706122" lon="-6.116808"><ele>43.5</ele></trkpt>
    <trkpt lat="36.706047" lon="-6.116806"><ele>43.6</ele></trkpt>
    <trkpt lat="36.705941" lon="-6.116874"><ele>43.7</ele></trkpt>
    <trkpt lat="36.705452" lon="-6.117435"><ele>44.4</ele></trkpt>
    <trkpt lat="36.705434" lon="-6.117456"><ele>44.5</ele></trkpt>
    <trkpt lat="36.705416" lon="-6.117476"><ele>44.5</ele></trkpt>
    <trkpt lat="36.70528" lon="-6.11763"><ele>44.7</ele></trkpt>
    <trkpt lat="36.704887" lon="-6.118077"><ele>44.9</ele></trkpt>
    <trkpt lat="36.704552" lon="-6.118456"><ele>45</ele></trkpt>
    <trkpt lat="36.704216" lon="-6.118837"><ele>45.2</ele></trkpt>
    <trkpt lat="36.704127" lon="-6.118939"><ele>45.3</ele></trkpt>
    <trkpt lat="36.703484" lon="-6.11967"><ele>45.7</ele></trkpt>
    <trkpt lat="36.703405" lon="-6.119759"><ele>45.7</ele></trkpt>
    <trkpt lat="36.702815" lon="-6.120428"><ele>46.2</ele></trkpt>
    <trkpt lat="36.702731" lon="-6.120522"><ele>46.2</ele></trkpt>
    <trkpt lat="36.702182" lon="-6.121147"><ele>46.2</ele></trkpt>
    <trkpt lat="36.702096" lon="-6.121243"><ele>46.2</ele></trkpt>
    <trkpt lat="36.70204" lon="-6.121307"><ele>46.3</ele></trkpt>
    <trkpt lat="36.701978" lon="-6.121447"><ele>46.3</ele></trkpt>
    <trkpt lat="36.701992" lon="-6.121653"><ele>46.5</ele></trkpt>
    <trkpt lat="36.701905" lon="-6.121828"><ele>46.7</ele></trkpt>
    <trkpt lat="36.701827" lon="-6.121885"><ele>46.8</ele></trkpt>
    <trkpt lat="36.701738" lon="-6.121906"><ele>46.9</ele></trkpt>
    <trkpt lat="36.701631" lon="-6.121876"><ele>47</ele></trkpt>
    <trkpt lat="36.701492" lon="-6.121935"><ele>47.2</ele></trkpt>
    <trkpt lat="36.701262" lon="-6.122192"><ele>47.6</ele></trkpt>
    <trkpt lat="36.701174" lon="-6.122292"><ele>47.9</ele></trkpt>
    <trkpt lat="36.700499" lon="-6.123058"><ele>49.8</ele></trkpt>
    <trkpt lat="36.700397" lon="-6.123174"><ele>50.1</ele></trkpt>
    <trkpt lat="36.699995" lon="-6.123631"><ele>50.9</ele></trkpt>
    <trkpt lat="36.699886" lon="-6.123754"><ele>51.1</ele></trkpt>
    <trkpt lat="36.699896" lon="-6.123874"><ele>51.2</ele></trkpt>
    <trkpt lat="36.699793" lon="-6.124035"><ele>51.4</ele></trkpt>
    <trkpt lat="36.699683" lon="-6.124062"><ele>51.6</ele></trkpt>
    <trkpt lat="36.699486" lon="-6.124122"><ele>51.7</ele></trkpt>
    <trkpt lat="36.69937" lon="-6.124256"><ele>51.9</ele></trkpt>
    <trkpt lat="36.699263" lon="-6.124379"><ele>51.9</ele></trkpt>
    <trkpt lat="36.698714" lon="-6.124998"><ele>51.4</ele></trkpt>
    <trkpt lat="36.698632" lon="-6.125092"><ele>51.3</ele></trkpt>
    <trkpt lat="36.698567" lon="-6.125168"><ele>51.2</ele></trkpt>
    <trkpt lat="36.698405" lon="-6.125353"><ele>51.1</ele></trkpt>
    <trkpt lat="36.698378" lon="-6.125384"><ele>51.1</ele></trkpt>
    <trkpt lat="36.698254" lon="-6.125526"><ele>51</ele></trkpt>
    <trkpt lat="36.698237" lon="-6.125545"><ele>50.9</ele></trkpt>
    <trkpt lat="36.698149" lon="-6.125783"><ele>50.8</ele></trkpt>
    <trkpt lat="36.698143" lon="-6.12583"><ele>50.7</ele></trkpt>
    <trkpt lat="36.698105" lon="-6.125917"><ele>50.7</ele></trkpt>
    <trkpt lat="36.698031" lon="-6.125973"><ele>50.6</ele></trkpt>
    <trkpt lat="36.697989" lon="-6.125975"><ele>50.5</ele></trkpt>
    <trkpt lat="36.697806" lon="-6.126029"><ele>50.3</ele></trkpt>
    <trkpt lat="36.697633" lon="-6.126232"><ele>50.1</ele></trkpt>
    <trkpt lat="36.6976" lon="-6.12627"><ele>50</ele></trkpt>
    <trkpt lat="36.696879" lon="-6.127087"><ele>50.4</ele></trkpt>
    <trkpt lat="36.696801" lon="-6.127175"><ele>50.4</ele></trkpt>
    <trkpt lat="36.696741" lon="-6.127242"><ele>50.4</ele></trkpt>
    <trkpt lat="36.696568" lon="-6.127438"><ele>50.4</ele></trkpt>
    <trkpt lat="36.695525" lon="-6.128619"><ele>50.7</ele></trkpt>
    <trkpt lat="36.695351" lon="-6.128822"><ele>50.8</ele></trkpt>
    <trkpt lat="36.695203" lon="-6.128995"><ele>50.9</ele></trkpt>
    <trkpt lat="36.69435" lon="-6.129993"><ele>51</ele></trkpt>
    <trkpt lat="36.694231" lon="-6.130131"><ele>51</ele></trkpt>
    <trkpt lat="36.694254" lon="-6.130174"><ele>51</ele></trkpt>
    <trkpt lat="36.694236" lon="-6.130286"><ele>51</ele></trkpt>
    <trkpt lat="36.69393" lon="-6.130657"><ele>50.9</ele></trkpt>
    <trkpt lat="36.693875" lon="-6.130656"><ele>50.8</ele></trkpt>
    <trkpt lat="36.693823" lon="-6.130615"><ele>50.8</ele></trkpt>
    <trkpt lat="36.693698" lon="-6.130758"><ele>50.7</ele></trkpt>
    <trkpt lat="36.693565" lon="-6.130916"><ele>50.5</ele></trkpt>
    <trkpt lat="36.693146" lon="-6.131419"><ele>50.6</ele></trkpt>
    <trkpt lat="36.693066" lon="-6.131519"><ele>50.6</ele></trkpt>
    <trkpt lat="36.692783" lon="-6.131894"><ele>51</ele></trkpt>
    <trkpt lat="36.692657" lon="-6.132103"><ele>51.2</ele></trkpt>
    <trkpt lat="36.692403" lon="-6.132527"><ele>51.6</ele></trkpt>
    <trkpt lat="36.692342" lon="-6.132628"><ele>51.7</ele></trkpt>
    <trkpt lat="36.692265" lon="-6.132757"><ele>51.9</ele></trkpt>
    <trkpt lat="36.692196" lon="-6.132871"><ele>52</ele></trkpt>
  </trkseg></trk></gpx>