<?xml version="1.0" encoding="UTF-8"?>
<gpx version="1.1" creator="tour-scraper" xmlns="http://www.topografix.com/GPX/1/1">
  <trk><name>Stage 1: Monaco - Monaco — La Vuelta 26</name><trkseg>
    <trkpt lat="43.739269" lon="7.42767"><ele>45.7</ele></trkpt>
    <trkpt lat="43.739424" lon="7.427598"><ele>45.8</ele></trkpt>
    <trkpt lat="43.73944" lon="7.427499"><ele>45.9</ele></trkpt>
    <trkpt lat="43.739464" lon="7.42735"><ele>46</ele></trkpt>
    <trkpt lat="43.73959" lon="7.427401"><ele>46.3</ele></trkpt>
    <trkpt lat="43.739712" lon="7.427297"><ele>46.7</ele></trkpt>
    <trkpt lat="43.73979" lon="7.427145"><ele>47</ele></trkpt>
    <trkpt lat="43.740086" lon="7.426603"><ele>48.6</ele></trkpt>
    <trkpt lat="43.740316" lon="7.426179"><ele>50.6</ele></trkpt>
    <trkpt lat="43.740516" lon="7.425778"><ele>53.3</ele></trkpt>
    <trkpt lat="43.740566" lon="7.425673"><ele>54</ele></trkpt>
    <trkpt lat="43.74062" lon="7.425702"><ele>54.4</ele></trkpt>
    <trkpt lat="43.740794" lon="7.425815"><ele>55.8</ele></trkpt>
    <trkpt lat="43.74095" lon="7.425951"><ele>56.9</ele></trkpt>
    <trkpt lat="43.740985" lon="7.425985"><ele>57.1</ele></trkpt>
    <trkpt lat="43.741099" lon="7.426119"><ele>57.8</ele></trkpt>
    <trkpt lat="43.74113" lon="7.426154"><ele>57.9</ele></trkpt>
    <trkpt lat="43.74142" lon="7.42658"><ele>59.1</ele></trkpt>
    <trkpt lat="43.741571" lon="7.426744"><ele>59.5</ele></trkpt>
    <trkpt lat="43.741563" lon="7.426819"><ele>59.5</ele></trkpt>
    <trkpt lat="43.741602" lon="7.426873"><ele>59.6</ele></trkpt>
    <trkpt lat="43.741652" lon="7.426867"><ele>59.7</ele></trkpt>
    <trkpt lat="43.741723" lon="7.426979"><ele>59.8</ele></trkpt>
    <trkpt lat="43.742198" lon="7.427685"><ele>59.7</ele></trkpt>
    <trkpt lat="43.742366" lon="7.427884"><ele>59.3</ele></trkpt>
    <trkpt lat="43.742547" lon="7.428004"><ele>59</ele></trkpt>
    <trkpt lat="43.743209" lon="7.428316"><ele>58.8</ele></trkpt>
    <trkpt lat="43.743456" lon="7.42847"><ele>59</ele></trkpt>
    <trkpt lat="43.743548" lon="7.428522"><ele>59.1</ele></trkpt>
    <trkpt lat="43.743797" lon="7.428681"><ele>59.2</ele></trkpt>
    <trkpt lat="43.744301" lon="7.42894"><ele>58.8</ele></trkpt>
    <trkpt lat="43.744851" lon="7.429193"><ele>57.9</ele></trkpt>
    <trkpt lat="43.744959" lon="7.429242"><ele>57.6</ele></trkpt>
    <trkpt lat="43.744999" lon="7.429259"><ele>57.6</ele></trkpt>
    <trkpt lat="43.745046" lon="7.429285"><ele>57.4</ele></trkpt>
    <trkpt lat="43.745472" lon="7.429483"><ele>56.3</ele></trkpt>
    <trkpt lat="43.74559" lon="7.42958"><ele>55.9</ele></trkpt>
    <trkpt lat="43.745932" lon="7.430105"><ele>54</ele></trkpt>
    <trkpt lat="43.746225" lon="7.430298"><ele>52.6</ele></trkpt>
    <trkpt lat="43.746303" lon="7.430388"><ele>52.2</ele></trkpt>
    <trkpt lat="43.746803" lon="7.431199"><ele>51.2</ele></trkpt>
    <trkpt lat="43.74693" lon="7.431379"><ele>51.1</ele></trkpt>
    <trkpt lat="43.747026" lon="7.431511"><ele>50.8</ele></trkpt>
    <trkpt lat="43.747163" lon="7.431674"><ele>50.5</ele></trkpt>
    <trkpt lat="43.747278" lon="7.431744"><ele>50.6</ele></trkpt>
    <trkpt lat="43.747518" lon="7.431732"><ele>50.7</ele></trkpt>
    <trkpt lat="43.747549" lon="7.431735"><ele>50.7</ele></trkpt>
    <trkpt lat="43.747641" lon="7.431766"><ele>50.9</ele></trkpt>
    <trkpt lat="43.747746" lon="7.43186"><ele>51.1</ele></trkpt>
    <trkpt lat="43.747807" lon="7.431977"><ele>51.3</ele></trkpt>
    <trkpt lat="43.74785" lon="7.432139"><ele>51.6</ele></trkpt>
    <trkpt lat="43.747827" lon="7.432227"><ele>51.8</ele></trkpt>
    <trkpt lat="43.747863" lon="7.432307"><ele>51.8</ele></trkpt>
    <trkpt lat="43.747914" lon="7.432322"><ele>51.9</ele></trkpt>
    <trkpt lat="43.74796" lon="7.43229"><ele>51.9</ele></trkpt>
    <trkpt lat="43.747981" lon="7.4322"><ele>51.8</ele></trkpt>
    <trkpt lat="43.747941" lon="7.432122"><ele>51.8</ele></trkpt>
    <trkpt lat="43.747894" lon="7.43211"><ele>51.7</ele></trkpt>
    <trkpt lat="43.74785" lon="7.432139"><ele>51.6</ele></trkpt>
    <trkpt lat="43.747807" lon="7.431977"><ele>51.3</ele></trkpt>
    <trkpt lat="43.747746" lon="7.43186"><ele>51.1</ele></trkpt>
    <trkpt lat="43.747641" lon="7.431766"><ele>50.9</ele></trkpt>
    <trkpt lat="43.747549" lon="7.431735"><ele>50.7</ele></trkpt>
    <trkpt lat="43.747518" lon="7.431732"><ele>50.7</ele></trkpt>
    <trkpt lat="43.747278" lon="7.431744"><ele>50.6</ele></trkpt>
    <trkpt lat="43.747163" lon="7.431674"><ele>50.8</ele></trkpt>
    <trkpt lat="43.747026" lon="7.431511"><ele>51</ele></trkpt>
    <trkpt lat="43.74693" lon="7.431379"><ele>51.1</ele></trkpt>
    <trkpt lat="43.746803" lon="7.431199"><ele>51.2</ele></trkpt>
    <trkpt lat="43.746303" lon="7.430388"><ele>52.2</ele></trkpt>
    <trkpt lat="43.746225" lon="7.430298"><ele>52.6</ele></trkpt>
    <trkpt lat="43.745932" lon="7.430105"><ele>54</ele></trkpt>
    <trkpt lat="43.74559" lon="7.42958"><ele>55.9</ele></trkpt>
    <trkpt lat="43.745472" lon="7.429483"><ele>56.3</ele></trkpt>
    <trkpt lat="43.745046" lon="7.429285"><ele>57.4</ele></trkpt>
    <trkpt lat="43.744999" lon="7.429259"><ele>57.6</ele></trkpt>
    <trkpt lat="43.744959" lon="7.429242"><ele>57.6</ele></trkpt>
    <trkpt lat="43.744851" lon="7.429193"><ele>57.9</ele></trkpt>
    <trkpt lat="43.744301" lon="7.42894"><ele>58.8</ele></trkpt>
    <trkpt lat="43.743797" lon="7.428681"><ele>59.2</ele></trkpt>
    <trkpt lat="43.743548" lon="7.428522"><ele>59.1</ele></trkpt>
    <trkpt lat="43.743456" lon="7.42847"><ele>59</ele></trkpt>
    <trkpt lat="43.743209" lon="7.428316"><ele>58.8</ele></trkpt>
    <trkpt lat="43.742547" lon="7.428004"><ele>59</ele></trkpt>
    <trkpt lat="43.742366" lon="7.427884"><ele>59.3</ele></trkpt>
    <trkpt lat="43.742198" lon="7.427685"><ele>59.4</ele></trkpt>
    <trkpt lat="43.741723" lon="7.426979"><ele>57.7</ele></trkpt>
    <trkpt lat="43.741652" lon="7.426867"><ele>57.3</ele></trkpt>
    <trkpt lat="43.741652" lon="7.426867"><ele>56.9</ele></trkpt>
    <trkpt lat="43.741652" lon="7.426867"><ele>56.9</ele></trkpt>
    <trkpt lat="43.741602" lon="7.426873"><ele>57</ele></trkpt>
    <trkpt lat="43.741576" lon="7.426932"><ele>56.7</ele></trkpt>
    <trkpt lat="43.741534" lon="7.426975"><ele>56.3</ele></trkpt>
    <trkpt lat="43.741487" lon="7.427023"><ele>56.1</ele></trkpt>
    <trkpt lat="43.741368" lon="7.42704"><ele>55.1</ele></trkpt>
    <trkpt lat="43.741096" lon="7.426867"><ele>52.9</ele></trkpt>
    <trkpt lat="43.740875" lon="7.426824"><ele>51.5</ele></trkpt>
    <trkpt lat="43.740698" lon="7.426922"><ele>49.9</ele></trkpt>
    <trkpt lat="43.740614" lon="7.427061"><ele>48.8</ele></trkpt>
    <trkpt lat="43.740592" lon="7.427104"><ele>48.4</ele></trkpt>
    <trkpt lat="43.74045" lon="7.427437"><ele>45.8</ele></trkpt>
    <trkpt lat="43.74043" lon="7.427481"><ele>45.4</ele></trkpt>
    <trkpt lat="43.740274" lon="7.427673"><ele>43.6</ele></trkpt>
    <trkpt lat="43.740167" lon="7.427754"><ele>42.6</ele></trkpt>
    <trkpt lat="43.740304" lon="7.427891"><ele>41.2</ele></trkpt>
    <trkpt lat="43.740336" lon="7.427925"><ele>40.9</ele></trkpt>
    <trkpt lat="43.740465" lon="7.428062"><ele>39.3</ele></trkpt>
    <trkpt lat="43.741103" lon="7.428744"><ele>33.4</ele></trkpt>
    <trkpt lat="43.741112" lon="7.428812"><ele>32.9</ele></trkpt>
    <trkpt lat="43.741094" lon="7.428925"><ele>32.2</ele></trkpt>
    <trkpt lat="43.741039" lon="7.429026"><ele>31.3</ele></trkpt>
    <trkpt lat="43.740968" lon="7.429091"><ele>30.4</ele></trkpt>
    <trkpt lat="43.740753" lon="7.429126"><ele>28.3</ele></trkpt>
    <trkpt lat="43.740625" lon="7.429192"><ele>27.2</ele></trkpt>
    <trkpt lat="43.74041" lon="7.429397"><ele>25.3</ele></trkpt>
    <trkpt lat="43.740239" lon="7.429513"><ele>23.9</ele></trkpt>
    <trkpt lat="43.740205" lon="7.4296"><ele>23.3</ele></trkpt>
    <trkpt lat="43.740252" lon="7.429723"><ele>22.4</ele></trkpt>
    <trkpt lat="43.740349" lon="7.429735"><ele>21.7</ele></trkpt>
    <trkpt lat="43.740422" lon="7.429645"><ele>21.1</ele></trkpt>
    <trkpt lat="43.740524" lon="7.429517"><ele>20.2</ele></trkpt>
    <trkpt lat="43.740704" lon="7.429333"><ele>18.5</ele></trkpt>
    <trkpt lat="43.740786" lon="7.429295"><ele>18</ele></trkpt>
    <trkpt lat="43.740888" lon="7.42935"><ele>17.3</ele></trkpt>
    <trkpt lat="43.740952" lon="7.429527"><ele>16.2</ele></trkpt>
    <trkpt lat="43.740983" lon="7.429569"><ele>15.9</ele></trkpt>
    <trkpt lat="43.741023" lon="7.429623"><ele>15.4</ele></trkpt>
    <trkpt lat="43.741056" lon="7.42967"><ele>15.1</ele></trkpt>
    <trkpt lat="43.74111" lon="7.429683"><ele>15</ele></trkpt>
    <trkpt lat="43.741352" lon="7.429744"><ele>13.8</ele></trkpt>
    <trkpt lat="43.741352" lon="7.429744"><ele>13.9</ele></trkpt>
    <trkpt lat="43.741352" lon="7.429744"><ele>13.9</ele></trkpt>
    <trkpt lat="43.74155" lon="7.429756"><ele>13.4</ele></trkpt>
    <trkpt lat="43.74155" lon="7.429756"><ele>13.5</ele></trkpt>
    <trkpt lat="43.74155" lon="7.429756"><ele>13.5</ele></trkpt>
    <trkpt lat="43.741715" lon="7.429916"><ele>12.3</ele></trkpt>
    <trkpt lat="43.741715" lon="7.429916"><ele>12.4</ele></trkpt>
    <trkpt lat="43.741765" lon="7.430163"><ele>11.4</ele></trkpt>
    <trkpt lat="43.741819" lon="7.430287"><ele>11.1</ele></trkpt>
    <trkpt lat="43.741867" lon="7.430352"><ele>10.7</ele></trkpt>
    <trkpt lat="43.741886" lon="7.430358"><ele>10.7</ele></trkpt>
    <trkpt lat="43.741886" lon="7.430358"><ele>11</ele></trkpt>
    <trkpt lat="43.741886" lon="7.430358"><ele>11</ele></trkpt>
    <trkpt lat="43.742652" lon="7.430476"><ele>9.7</ele></trkpt>
    <trkpt lat="43.742652" lon="7.430476"><ele>9.7</ele></trkpt>
    <trkpt lat="43.742652" lon="7.430476"><ele>9.7</ele></trkpt>
    <trkpt lat="43.74306" lon="7.430568"><ele>9.8</ele></trkpt>
    <trkpt lat="43.74306" lon="7.430568"><ele>9.8</ele></trkpt>
    <trkpt lat="43.74306" lon="7.430568"><ele>9.8</ele></trkpt>
    <trkpt lat="43.743438" lon="7.430743"><ele>9.3</ele></trkpt>
    <trkpt lat="43.743438" lon="7.430743"><ele>9.4</ele></trkpt>
    <trkpt lat="43.743438" lon="7.430743"><ele>9.4</ele></trkpt>
    <trkpt lat="43.74426" lon="7.431176"><ele>8.4</ele></trkpt>
    <trkpt lat="43.74426" lon="7.431176"><ele>8.3</ele></trkpt>
    <trkpt lat="43.74426" lon="7.431176"><ele>8.3</ele></trkpt>
    <trkpt lat="43.745027" lon="7.431642"><ele>7.1</ele></trkpt>
    <trkpt lat="43.745027" lon="7.431642"><ele>7.2</ele></trkpt>
    <trkpt lat="43.745027" lon="7.431642"><ele>7.2</ele></trkpt>
    <trkpt lat="43.745718" lon="7.432088"><ele>5.7</ele></trkpt>
    <trkpt lat="43.745718" lon="7.432088"><ele>5.7</ele></trkpt>
    <trkpt lat="43.746131" lon="7.432448"><ele>5.4</ele></trkpt>
    <trkpt lat="43.746131" lon="7.432448"><ele>5.4</ele></trkpt>
    <trkpt lat="43.74657" lon="7.433041"><ele>5.3</ele></trkpt>
    <trkpt lat="43.74657" lon="7.433041"><ele>5.4</ele></trkpt>
    <trkpt lat="43.74657" lon="7.433041"><ele>5.4</ele></trkpt>
    <trkpt lat="43.746891" lon="7.43335"><ele>5.6</ele></trkpt>
    <trkpt lat="43.746891" lon="7.43335"><ele>5.6</ele></trkpt>
    <trkpt lat="43.747288" lon="7.434023"><ele>6.2</ele></trkpt>
    <trkpt lat="43.747685" lon="7.434696"><ele>6.2</ele></trkpt>
    <trkpt lat="43.74771" lon="7.434737"><ele>6.2</ele></trkpt>
    <trkpt lat="43.747712" lon="7.434824"><ele>6.1</ele></trkpt>
    <trkpt lat="43.747679" lon="7.434871"><ele>6.1</ele></trkpt>
    <trkpt lat="43.747672" lon="7.434872"><ele>6.1</ele></trkpt>
    <trkpt lat="43.747632" lon="7.43488"><ele>6.1</ele></trkpt>
    <trkpt lat="43.747559" lon="7.434827"><ele>5.9</ele></trkpt>
    <trkpt lat="43.747295" lon="7.434375"><ele>5.5</ele></trkpt>
    <trkpt lat="43.747295" lon="7.434375"><ele>5.4</ele></trkpt>
    <trkpt lat="43.747295" lon="7.434375"><ele>5.4</ele></trkpt>
    <trkpt lat="43.746884" lon="7.433675"><ele>4.2</ele></trkpt>
    <trkpt lat="43.746841" lon="7.433605"><ele>4.3</ele></trkpt>
    <trkpt lat="43.746791" lon="7.433517"><ele>4.2</ele></trkpt>
    <trkpt lat="43.74672" lon="7.433413"><ele>4.4</ele></trkpt>
    <trkpt lat="43.746567" lon="7.433185"><ele>4</ele></trkpt>
    <trkpt lat="43.746517" lon="7.433109"><ele>4</ele></trkpt>
    <trkpt lat="43.746517" lon="7.433109"><ele>4.1</ele></trkpt>
    <trkpt lat="43.746517" lon="7.433109"><ele>4.1</ele></trkpt>
    <trkpt lat="43.746093" lon="7.432524"><ele>4.4</ele></trkpt>
    <trkpt lat="43.746093" lon="7.432524"><ele>4.4</ele></trkpt>
    <trkpt lat="43.746093" lon="7.432524"><ele>4.4</ele></trkpt>
    <trkpt lat="43.74556" lon="7.432063"><ele>5.4</ele></trkpt>
    <trkpt lat="43.74556" lon="7.432063"><ele>5.4</ele></trkpt>
    <trkpt lat="43.745118" lon="7.431845"><ele>6.2</ele></trkpt>
    <trkpt lat="43.745118" lon="7.431845"><ele>6.2</ele></trkpt>
    <trkpt lat="43.744674" lon="7.431597"><ele>6.7</ele></trkpt>
    <trkpt lat="43.74423" lon="7.43135"><ele>6.9</ele></trkpt>
    <trkpt lat="43.74423" lon="7.43135"><ele>6.8</ele></trkpt>
    <trkpt lat="43.74423" lon="7.43135"><ele>6.8</ele></trkpt>
    <trkpt lat="43.743744" lon="7.431078"><ele>6.7</ele></trkpt>
    <trkpt lat="43.743259" lon="7.430807"><ele>6.1</ele></trkpt>
    <trkpt lat="43.743069" lon="7.430708"><ele>5.7</ele></trkpt>
    <trkpt lat="43.74305" lon="7.430703"><ele>5.7</ele></trkpt>
    <trkpt lat="43.74305" lon="7.430703"><ele>5.6</ele></trkpt>
    <trkpt lat="43.74305" lon="7.430703"><ele>5.6</ele></trkpt>
    <trkpt lat="43.742209" lon="7.430569"><ele>4.2</ele></trkpt>
    <trkpt lat="43.741369" lon="7.430434"><ele>4.7</ele></trkpt>
    <trkpt lat="43.741369" lon="7.430434"><ele>5</ele></trkpt>
    <trkpt lat="43.741369" lon="7.430434"><ele>5</ele></trkpt>
    <trkpt lat="43.741091" lon="7.4304"><ele>5.7</ele></trkpt>
    <trkpt lat="43.740969" lon="7.430386"><ele>6.1</ele></trkpt>
    <trkpt lat="43.740972" lon="7.430339"><ele>6.2</ele></trkpt>
    <trkpt lat="43.740888" lon="7.43036"><ele>6.6</ele></trkpt>
    <trkpt lat="43.740362" lon="7.430326"><ele>7.9</ele></trkpt>
    <trkpt lat="43.740296" lon="7.430321"><ele>8.2</ele></trkpt>
    <trkpt lat="43.739793" lon="7.430223"><ele>8.8</ele></trkpt>
    <trkpt lat="43.739382" lon="7.430046"><ele>8.2</ele></trkpt>
    <trkpt lat="43.738994" lon="7.42979"><ele>6.8</ele></trkpt>
    <trkpt lat="43.738636" lon="7.429458"><ele>5.7</ele></trkpt>
    <trkpt lat="43.738318" lon="7.429058"><ele>5.2</ele></trkpt>
    <trkpt lat="43.738032" lon="7.428575"><ele>4.9</ele></trkpt>
    <trkpt lat="43.737802" lon="7.428037"><ele>5.2</ele></trkpt>
    <trkpt lat="43.737778" lon="7.427973"><ele>5.4</ele></trkpt>
    <trkpt lat="43.737532" lon="7.427307"><ele>6.8</ele></trkpt>
    <trkpt lat="43.737419" lon="7.426844"><ele>7.4</ele></trkpt>
    <trkpt lat="43.737316" lon="7.426173"><ele>7.6</ele></trkpt>
    <trkpt lat="43.73727" lon="7.425819"><ele>7.6</ele></trkpt>
    <trkpt lat="43.737229" lon="7.425481"><ele>7.8</ele></trkpt>
    <trkpt lat="43.737206" lon="7.425308"><ele>7.8</ele></trkpt>
    <trkpt lat="43.73717" lon="7.424919"><ele>7.3</ele></trkpt>
    <trkpt lat="43.737158" lon="7.424774"><ele>6.9</ele></trkpt>
    <trkpt lat="43.737109" lon="7.424273"><ele>5.2</ele></trkpt>
    <trkpt lat="43.737066" lon="7.423837"><ele>4</ele></trkpt>
    <trkpt lat="43.73701" lon="7.423373"><ele>2.9</ele></trkpt>
    <trkpt lat="43.736987" lon="7.423117"><ele>2.5</ele></trkpt>
    <trkpt lat="43.736939" lon="7.423101"><ele>2.3</ele></trkpt>
    <trkpt lat="43.736862" lon="7.423027"><ele>2.1</ele></trkpt>
    <trkpt lat="43.736795" lon="7.422292"><ele>0.9</ele></trkpt>
    <trkpt lat="43.73674" lon="7.422169"><ele>0.8</ele></trkpt>
    <trkpt lat="43.736665" lon="7.422106"><ele>0.6</ele></trkpt>
    <trkpt lat="43.736364" lon="7.421912"><ele>0.5</ele></trkpt>
    <trkpt lat="43.736139" lon="7.421823"><ele>0.4</ele></trkpt>
    <trkpt lat="43.735882" lon="7.42177"><ele>0.4</ele></trkpt>
    <trkpt lat="43.735574" lon="7.421779"><ele>0.3</ele></trkpt>
    <trkpt lat="43.735362" lon="7.421855"><ele>0.3</ele></trkpt>
    <trkpt lat="43.735228" lon="7.421968"><ele>0.3</ele></trkpt>
    <trkpt lat="43.735139" lon="7.42209"><ele>0.3</ele></trkpt>
    <trkpt lat="43.735063" lon="7.422193"><ele>0.3</ele></trkpt>
    <trkpt lat="43.735013" lon="7.422231"><ele>0.3</ele></trkpt>
    <trkpt lat="43.734697" lon="7.422312"><ele>0.3</ele></trkpt>
    <trkpt lat="43.734547" lon="7.42235"><ele>0.3</ele></trkpt>
    <trkpt lat="43.734312" lon="7.42241"><ele>0.4</ele></trkpt>
    <trkpt lat="43.734161" lon="7.422364"><ele>0.5</ele></trkpt>
    <trkpt lat="43.734036" lon="7.422325"><ele>0.6</ele></trkpt>
    <trkpt lat="43.733938" lon="7.422328"><ele>0.7</ele></trkpt>
    <trkpt lat="43.73373" lon="7.422407"><ele>1.1</ele></trkpt>
    <trkpt lat="43.733433" lon="7.422556"><ele>2.5</ele></trkpt>
    <trkpt lat="43.733148" lon="7.422798"><ele>4.2</ele></trkpt>
    <trkpt lat="43.733004" lon="7.422977"><ele>5.2</ele></trkpt>
    <trkpt lat="43.732808" lon="7.423314"><ele>7.3</ele></trkpt>
    <trkpt lat="43.732715" lon="7.423414"><ele>8.6</ele></trkpt>
    <trkpt lat="43.73268" lon="7.423448"><ele>8.7</ele></trkpt>
    <trkpt lat="43.732698" lon="7.423541"><ele>9.3</ele></trkpt>
    <trkpt lat="43.732911" lon="7.424567"><ele>9.2</ele></trkpt>
    <trkpt lat="43.732911" lon="7.424567"><ele>9.1</ele></trkpt>
    <trkpt lat="43.732911" lon="7.424567"><ele>9</ele></trkpt>
    <trkpt lat="43.73277" lon="7.42453"><ele>8.9</ele></trkpt>
    <trkpt lat="43.73277" lon="7.42453"><ele>8.9</ele></trkpt>
    <trkpt lat="43.73277" lon="7.42453"><ele>8.8</ele></trkpt>
    <trkpt lat="43.732682" lon="7.424507"><ele>8.7</ele></trkpt>
    <trkpt lat="43.732658" lon="7.424518"><ele>8.6</ele></trkpt>
    <trkpt lat="43.732568" lon="7.424551"><ele>8.5</ele></trkpt>
    <trkpt lat="43.732568" lon="7.424551"><ele>8.4</ele></trkpt>
    <trkpt lat="43.732568" lon="7.424551"><ele>8.3</ele></trkpt>
    <trkpt lat="43.732444" lon="7.424593"><ele>8.2</ele></trkpt>
    <trkpt lat="43.732444" lon="7.424593"><ele>8.2</ele></trkpt>
    <trkpt lat="43.732444" lon="7.424593"><ele>8.1</ele></trkpt>
    <trkpt lat="43.732339" lon="7.424526"><ele>8</ele></trkpt>
    <trkpt lat="43.73235" lon="7.42459"><ele>7.9</ele></trkpt>
    <trkpt lat="43.73228" lon="7.424607"><ele>7.8</ele></trkpt>
    <trkpt lat="43.732251" lon="7.424433"><ele>7.7</ele></trkpt>
    <trkpt lat="43.732209" lon="7.424177"><ele>7.6</ele></trkpt>
    <trkpt lat="43.73216" lon="7.423959"><ele>7.5</ele></trkpt>
    <trkpt lat="43.732066" lon="7.423538"><ele>7.5</ele></trkpt>
    <trkpt lat="43.732059" lon="7.423387"><ele>7.4</ele></trkpt>
    <trkpt lat="43.732059" lon="7.423387"><ele>7.3</ele></trkpt>
    <trkpt lat="43.732059" lon="7.423387"><ele>7.2</ele></trkpt>
    <trkpt lat="43.731991" lon="7.423055"><ele>7.1</ele></trkpt>
    <trkpt lat="43.731991" lon="7.423055"><ele>7</ele></trkpt>
    <trkpt lat="43.731991" lon="7.423055"><ele>6.9</ele></trkpt>
    <trkpt lat="43.731924" lon="7.422362"><ele>6.8</ele></trkpt>
    <trkpt lat="43.731795" lon="7.421459"><ele>6.8</ele></trkpt>
    <trkpt lat="43.731739" lon="7.421013"><ele>6.7</ele></trkpt>
    <trkpt lat="43.731709" lon="7.420765"><ele>6.6</ele></trkpt>
    <trkpt lat="43.731469" lon="7.419943"><ele>6.5</ele></trkpt>
    <trkpt lat="43.731341" lon="7.419502"><ele>6.4</ele></trkpt>
    <trkpt lat="43.731145" lon="7.418649"><ele>6.3</ele></trkpt>
    <trkpt lat="43.731127" lon="7.418574"><ele>6.2</ele></trkpt>
    <trkpt lat="43.731031" lon="7.418376"><ele>6.1</ele></trkpt>
    <trkpt lat="43.730849" lon="7.418118"><ele>6.1</ele></trkpt>
    <trkpt lat="43.730517" lon="7.417673"><ele>6</ele></trkpt>
    <trkpt lat="43.730337" lon="7.417433"><ele>5.9</ele></trkpt>
    <trkpt lat="43.730273" lon="7.417346"><ele>5.8</ele></trkpt>
    <trkpt lat="43.730197" lon="7.417242"><ele>5.7</ele></trkpt>
    <trkpt lat="43.730111" lon="7.417124"><ele>5.6</ele></trkpt>
    <trkpt lat="43.730111" lon="7.417124"><ele>5.5</ele></trkpt>
    <trkpt lat="43.730111" lon="7.417124"><ele>5.4</ele></trkpt>
    <trkpt lat="43.729968" lon="7.417066"><ele>5.4</ele></trkpt>
    <trkpt lat="43.729968" lon="7.417066"><ele>5.3</ele></trkpt>
    <trkpt lat="43.729968" lon="7.417066"><ele>5.2</ele></trkpt>
    <trkpt lat="43.729853" lon="7.417204"><ele>5.1</ele></trkpt>
    <trkpt lat="43.729872" lon="7.417341"><ele>5</ele></trkpt>
    <trkpt lat="43.729877" lon="7.417382"><ele>5.1</ele></trkpt>
    <trkpt lat="43.729915" lon="7.417737"><ele>5.2</ele></trkpt>
    <trkpt lat="43.729932" lon="7.417904"><ele>5.2</ele></trkpt>
    <trkpt lat="43.729948" lon="7.418049"><ele>5.2</ele></trkpt>
    <trkpt lat="43.72998" lon="7.418384"><ele>5.7</ele></trkpt>
    <trkpt lat="43.729936" lon="7.418452"><ele>5.5</ele></trkpt>
    <trkpt lat="43.729315" lon="7.41852"><ele>4.4</ele></trkpt>
    <trkpt lat="43.729122" lon="7.418539"><ele>4.6</ele></trkpt>
    <trkpt lat="43.729019" lon="7.418573"><ele>4.8</ele></trkpt>
    <trkpt lat="43.729004" lon="7.41862"><ele>4.9</ele></trkpt>
    <trkpt lat="43.729011" lon="7.4189"><ele>5.3</ele></trkpt>
    <trkpt lat="43.729004" lon="7.419114"><ele>5.6</ele></trkpt>
    <trkpt lat="43.728929" lon="7.419179"><ele>5.9</ele></trkpt>
    <trkpt lat="43.728698" lon="7.419204"><ele>6.1</ele></trkpt>
    <trkpt lat="43.728634" lon="7.419207"><ele>6.3</ele></trkpt>
    <trkpt lat="43.728579" lon="7.419258"><ele>6.3</ele></trkpt>
    <trkpt lat="43.728577" lon="7.419406"><ele>6.4</ele></trkpt>
    <trkpt lat="43.728587" lon="7.419448"><ele>6.3</ele></trkpt>
    <trkpt lat="43.728623" lon="7.420111"><ele>5.6</ele></trkpt>
    <trkpt lat="43.728653" lon="7.420715"><ele>5.1</ele></trkpt>
    <trkpt lat="43.728671" lon="7.421093"><ele>4.4</ele></trkpt>
    <trkpt lat="43.728656" lon="7.421195"><ele>4.2</ele></trkpt>
    <trkpt lat="43.728623" lon="7.421224"><ele>4.1</ele></trkpt>
    <trkpt lat="43.728329" lon="7.421323"><ele>3.3</ele></trkpt>
    <trkpt lat="43.728155" lon="7.421424"><ele>2.8</ele></trkpt>
    <trkpt lat="43.72778" lon="7.421753"><ele>2</ele></trkpt>
    <trkpt lat="43.727633" lon="7.421954"><ele>1.8</ele></trkpt>
    <trkpt lat="43.72748" lon="7.422205"><ele>1.7</ele></trkpt>
    <trkpt lat="43.727431" lon="7.422237"><ele>1.7</ele></trkpt>
    <trkpt lat="43.72737" lon="7.422199"><ele>1.7</ele></trkpt>
    <trkpt lat="43.727223" lon="7.421887"><ele>1.5</ele></trkpt>
    <trkpt lat="43.726908" lon="7.421212"><ele>1.9</ele></trkpt>
    <trkpt lat="43.726786" lon="7.421013"><ele>2.4</ele></trkpt>
    <trkpt lat="43.726623" lon="7.420748"><ele>3.1</ele></trkpt>
    <trkpt lat="43.726626" lon="7.420627"><ele>3.3</ele></trkpt>
    <trkpt lat="43.726644" lon="7.420587"><ele>3.4</ele></trkpt>
    <trkpt lat="43.726723" lon="7.420449"><ele>3.6</ele></trkpt>
    <trkpt lat="43.726771" lon="7.420331"><ele>3.8</ele></trkpt>
    <trkpt lat="43.726914" lon="7.420044"><ele>4.2</ele></trkpt>
    <trkpt lat="43.727035" lon="7.419965"><ele>4.5</ele></trkpt>
    <trkpt lat="43.727029" lon="7.419876"><ele>4.6</ele></trkpt>
    <trkpt lat="43.727013" lon="7.419877"><ele>4.6</ele></trkpt>
    <trkpt lat="43.726939" lon="7.419765"><ele>4.8</ele></trkpt>
    <trkpt lat="43.726946" lon="7.419619"><ele>5.1</ele></trkpt>
    <trkpt lat="43.72695" lon="7.419468"><ele>5.2</ele></trkpt>
    <trkpt lat="43.726924" lon="7.419371"><ele>5.4</ele></trkpt>
    <trkpt lat="43.726806" lon="7.419219"><ele>5.7</ele></trkpt>
    <trkpt lat="43.726699" lon="7.419259"><ele>5.8</ele></trkpt>
    <trkpt lat="43.726613" lon="7.41915"><ele>5.7</ele></trkpt>
    <trkpt lat="43.726613" lon="7.41915"><ele>5.8</ele></trkpt>
    <trkpt lat="43.726613" lon="7.41915"><ele>5.8</ele></trkpt>
    <trkpt lat="43.726278" lon="7.418712"><ele>5.3</ele></trkpt>
    <trkpt lat="43.725943" lon="7.418273"><ele>5.5</ele></trkpt>
    <trkpt lat="43.725835" lon="7.418101"><ele>5.7</ele></trkpt>
    <trkpt lat="43.725808" lon="7.418062"><ele>5.7</ele></trkpt>
    <trkpt lat="43.725877" lon="7.417964"><ele>5.7</ele></trkpt>
    <trkpt lat="43.725912" lon="7.417915"><ele>5.8</ele></trkpt>
    <trkpt lat="43.726142" lon="7.417584"><ele>5.8</ele></trkpt>
    <trkpt lat="43.726275" lon="7.417394"><ele>5.8</ele></trkpt>
    <trkpt lat="43.72636" lon="7.417317"><ele>5.8</ele></trkpt>
    <trkpt lat="43.72636" lon="7.417317"><ele>5.8</ele></trkpt>
    <trkpt lat="43.726359" lon="7.417225"><ele>5.8</ele></trkpt>
    <trkpt lat="43.726359" lon="7.417225"><ele>5.7</ele></trkpt>
    <trkpt lat="43.726359" lon="7.417225"><ele>5.7</ele></trkpt>
    <trkpt lat="43.726404" lon="7.417176"><ele>5.8</ele></trkpt>
    <trkpt lat="43.726397" lon="7.417082"><ele>5.7</ele></trkpt>
    <trkpt lat="43.726399" lon="7.416927"><ele>5.7</ele></trkpt>
    <trkpt lat="43.726403" lon="7.41669"><ele>5.7</ele></trkpt>
    <trkpt lat="43.726418" lon="7.415781"><ele>6.5</ele></trkpt>
    <trkpt lat="43.726418" lon="7.415631"><ele>6.7</ele></trkpt>
    <trkpt lat="43.726441" lon="7.415374"><ele>6.7</ele></trkpt>
    <trkpt lat="43.726571" lon="7.415075"><ele>7</ele></trkpt>
    <trkpt lat="43.726852" lon="7.414561"><ele>8.7</ele></trkpt>
    <trkpt lat="43.7271" lon="7.414137"><ele>11.4</ele></trkpt>
    <trkpt lat="43.727176" lon="7.414046"><ele>12.2</ele></trkpt>
    <trkpt lat="43.727268" lon="7.413996"><ele>12.9</ele></trkpt>
    <trkpt lat="43.727335" lon="7.413993"><ele>13.4</ele></trkpt>
    <trkpt lat="43.727344" lon="7.413987"><ele>13.4</ele></trkpt>
    <trkpt lat="43.727542" lon="7.413996"><ele>14.5</ele></trkpt>
    <trkpt lat="43.727563" lon="7.41403"><ele>14.7</ele></trkpt>
    <trkpt lat="43.727587" lon="7.414069"><ele>14.9</ele></trkpt>
    <trkpt lat="43.727751" lon="7.414308"><ele>15.9</ele></trkpt>
    <trkpt lat="43.727845" lon="7.414405"><ele>16.4</ele></trkpt>
    <trkpt lat="43.727894" lon="7.414422"><ele>16.6</ele></trkpt>
    <trkpt lat="43.728056" lon="7.414469"><ele>17.5</ele></trkpt>
    <trkpt lat="43.728126" lon="7.414516"><ele>18</ele></trkpt>
    <trkpt lat="43.72841" lon="7.414874"><ele>19.9</ele></trkpt>
    <trkpt lat="43.728613" lon="7.415164"><ele>20.6</ele></trkpt>
    <trkpt lat="43.728598" lon="7.415248"><ele>20.6</ele></trkpt>
    <trkpt lat="43.728639" lon="7.415339"><ele>20.6</ele></trkpt>
    <trkpt lat="43.728716" lon="7.415354"><ele>20.6</ele></trkpt>
    <trkpt lat="43.728759" lon="7.415314"><ele>20.5</ele></trkpt>
    <trkpt lat="43.728862" lon="7.415351"><ele>20.4</ele></trkpt>
    <trkpt lat="43.728935" lon="7.415425"><ele>20.1</ele></trkpt>
    <trkpt lat="43.729077" lon="7.415619"><ele>19.5</ele></trkpt>
    <trkpt lat="43.729113" lon="7.415669"><ele>19.3</ele></trkpt>
    <trkpt lat="43.729482" lon="7.416176"><ele>16.7</ele></trkpt>
    <trkpt lat="43.72952" lon="7.416266"><ele>16.2</ele></trkpt>
    <trkpt lat="43.729581" lon="7.416366"><ele>15.4</ele></trkpt>
    <trkpt lat="43.729644" lon="7.416457"><ele>14.6</ele></trkpt>
    <trkpt lat="43.729769" lon="7.416624"><ele>13.1</ele></trkpt>
    <trkpt lat="43.729816" lon="7.416743"><ele>12.2</ele></trkpt>
    <trkpt lat="43.729824" lon="7.416814"><ele>11.7</ele></trkpt>
    <trkpt lat="43.729825" lon="7.416905"><ele>11.2</ele></trkpt>
    <trkpt lat="43.729917" lon="7.417036"><ele>10</ele></trkpt>
    <trkpt lat="43.729968" lon="7.417066"><ele>9.5</ele></trkpt>
    <trkpt lat="43.729993" lon="7.417058"><ele>9.2</ele></trkpt>
    <trkpt lat="43.730109" lon="7.417122"><ele>8.2</ele></trkpt>
    <trkpt lat="43.730197" lon="7.417242"><ele>7.2</ele></trkpt>
    <trkpt lat="43.730273" lon="7.417346"><ele>6.5</ele></trkpt>
    <trkpt lat="43.730337" lon="7.417433"><ele>5.9</ele></trkpt>
    <trkpt lat="43.730849" lon="7.418118"><ele>4</ele></trkpt>
    <trkpt lat="43.731031" lon="7.418376"><ele>4.7</ele></trkpt>
    <trkpt lat="43.731127" lon="7.418574"><ele>5.5</ele></trkpt>
    <trkpt lat="43.731341" lon="7.419502"><ele>10.7</ele></trkpt>
    <trkpt lat="43.731709" lon="7.420765"><ele>18.3</ele></trkpt>
    <trkpt lat="43.73209" lon="7.421895"><ele>19.5</ele></trkpt>
    <trkpt lat="43.732242" lon="7.422179"><ele>18.2</ele></trkpt>
    <trkpt lat="43.732434" lon="7.422311"><ele>16.7</ele></trkpt>
    <trkpt lat="43.732602" lon="7.422293"><ele>15.5</ele></trkpt>
    <trkpt lat="43.732706" lon="7.42223"><ele>14.7</ele></trkpt>
    <trkpt lat="43.732989" lon="7.421964"><ele>11.8</ele></trkpt>
    <trkpt lat="43.733116" lon="7.421879"><ele>10.5</ele></trkpt>
    <trkpt lat="43.73321" lon="7.421874"><ele>9.7</ele></trkpt>
    <trkpt lat="43.733558" lon="7.42171"><ele>6.5</ele></trkpt>
    <trkpt lat="43.733601" lon="7.421693"><ele>6.2</ele></trkpt>
    <trkpt lat="43.734382" lon="7.421396"><ele>3.7</ele></trkpt>
    <trkpt lat="43.734428" lon="7.421385"><ele>3.7</ele></trkpt>
    <trkpt lat="43.73448" lon="7.421372"><ele>3.7</ele></trkpt>
    <trkpt lat="43.735022" lon="7.421284"><ele>3.5</ele></trkpt>
  </trkseg></trk></gpx>